[{"OBJECT_NAME":"ONEWEB-0403","OBJECT_ID":"2021-132Q","EPOCH":"2026-04-10T10:27:32.908320","MEAN_MOTION":13.18684287,"ECCENTRICITY":0.000161,"INCLINATION":87.9228,"RA_OF_ASC_NODE":348.9231,"ARG_OF_PERICENTER":80.7658,"MEAN_ANOMALY":279.3656,"EPHEMERIS_TYPE":0,"CLASSIFICATION_TYPE":"U","NORAD_CAT_ID":50483,"ELEMENT_SET_NO":999,"REV_AT_EPOCH":21266,"BSTAR":0.00010638000000000001,"MEAN_MOTION_DOT":5.5e-07,"MEAN_MOTION_DDOT":0.0},{"OBJECT_NAME":"ONEWEB-0404","OBJECT_ID":"2021-132R","EPOCH":"2026-04-10T08:25:34.117248","MEAN_MOTION":13.11414752,"ECCENTRICITY":0.0001525,"INCLINATION":87.8907,"RA_OF_ASC_NODE":34.5525,"ARG_OF_PERICENTER":80.3472,"MEAN_ANOMALY":279.7828,"EPHEMERIS_TYPE":0,"CLASSIFICATION_TYPE":"U","NORAD_CAT_ID":50484,"ELEMENT_SET_NO":999,"REV_AT_EPOCH":20680,"BSTAR":0.0013455000000000001,"MEAN_MOTION_DOT":4.9e-06,"MEAN_MOTION_DDOT":0.0},{"OBJECT_NAME":"ONEWEB-0405","OBJECT_ID":"2021-132S","EPOCH":"2026-04-10T03:31:52.317984","MEAN_MOTION":13.18688349,"ECCENTRICITY":0.0001782,"INCLINATION":87.9233,"RA_OF_ASC_NODE":348.9644,"ARG_OF_PERICENTER":63.3082,"MEAN_ANOMALY":296.8232,"EPHEMERIS_TYPE":0,"CLASSIFICATION_TYPE":"U","NORAD_CAT_ID":50485,"ELEMENT_SET_NO":999,"REV_AT_EPOCH":21302,"BSTAR":-6.4993e-05,"MEAN_MOTION_DOT":-1.3e-07,"MEAN_MOTION_DDOT":0.0},{"OBJECT_NAME":"ONEWEB-0406","OBJECT_ID":"2021-132T","EPOCH":"2026-04-10T10:34:39.493632","MEAN_MOTION":13.18688402,"ECCENTRICITY":0.0001347,"INCLINATION":87.922,"RA_OF_ASC_NODE":348.9285,"ARG_OF_PERICENTER":86.809,"MEAN_ANOMALY":273.3196,"EPHEMERIS_TYPE":0,"CLASSIFICATION_TYPE":"U","NORAD_CAT_ID":50486,"ELEMENT_SET_NO":999,"REV_AT_EPOCH":21269,"BSTAR":-0.0001634,"MEAN_MOTION_DOT":-5.2e-07,"MEAN_MOTION_DDOT":0.0},{"OBJECT_NAME":"ONEWEB-0407","OBJECT_ID":"2021-132U","EPOCH":"2026-04-10T10:25:09.657984","MEAN_MOTION":13.18686575,"ECCENTRICITY":0.0001907,"INCLINATION":87.9233,"RA_OF_ASC_NODE":348.9164,"ARG_OF_PERICENTER":80.1457,"MEAN_ANOMALY":279.989,"EPHEMERIS_TYPE":0,"CLASSIFICATION_TYPE":"U","NORAD_CAT_ID":50487,"ELEMENT_SET_NO":999,"REV_AT_EPOCH":21263,"BSTAR":-0.00057545,"MEAN_MOTION_DOT":-2.14e-06,"MEAN_MOTION_DDOT":0.0},{"OBJECT_NAME":"ONEWEB-0409","OBJECT_ID":"2021-132V","EPOCH":"2026-04-10T12:02:51.930816","MEAN_MOTION":13.11415651,"ECCENTRICITY":0.0001571,"INCLINATION":87.8917,"RA_OF_ASC_NODE":34.5058,"ARG_OF_PERICENTER":77.0143,"MEAN_ANOMALY":283.116,"EPHEMERIS_TYPE":0,"CLASSIFICATION_TYPE":"U","NORAD_CAT_ID":50488,"ELEMENT_SET_NO":999,"REV_AT_EPOCH":20671,"BSTAR":0.0016092,"MEAN_MOTION_DOT":5.83e-06,"MEAN_MOTION_DDOT":0.0},{"OBJECT_NAME":"ONEWEB-0412","OBJECT_ID":"2021-132W","EPOCH":"2026-04-10T10:08:32.201088","MEAN_MOTION":13.18688188,"ECCENTRICITY":0.0001956,"INCLINATION":87.9223,"RA_OF_ASC_NODE":348.9306,"ARG_OF_PERICENTER":88.1564,"MEAN_ANOMALY":271.9792,"EPHEMERIS_TYPE":0,"CLASSIFICATION_TYPE":"U","NORAD_CAT_ID":50489,"ELEMENT_SET_NO":999,"REV_AT_EPOCH":21272,"BSTAR":9.7037e-05,"MEAN_MOTION_DOT":5.1e-07,"MEAN_MOTION_DDOT":0.0},{"OBJECT_NAME":"ONEWEB-0413","OBJECT_ID":"2021-132X","EPOCH":"2026-04-10T10:15:40.033152","MEAN_MOTION":13.18684585,"ECCENTRICITY":0.0002044,"INCLINATION":87.9217,"RA_OF_ASC_NODE":348.9321,"ARG_OF_PERICENTER":84.9838,"MEAN_ANOMALY":275.1528,"EPHEMERIS_TYPE":0,"CLASSIFICATION_TYPE":"U","NORAD_CAT_ID":50490,"ELEMENT_SET_NO":999,"REV_AT_EPOCH":21266,"BSTAR":-0.00020030000000000002,"MEAN_MOTION_DOT":-6.6e-07,"MEAN_MOTION_DDOT":0.0},{"OBJECT_NAME":"ONEWEB-0414","OBJECT_ID":"2021-132Y","EPOCH":"2026-04-10T09:54:17.471808","MEAN_MOTION":13.18684073,"ECCENTRICITY":0.0001738,"INCLINATION":87.9228,"RA_OF_ASC_NODE":348.91,"ARG_OF_PERICENTER":86.2339,"MEAN_ANOMALY":273.8992,"EPHEMERIS_TYPE":0,"CLASSIFICATION_TYPE":"U","NORAD_CAT_ID":50491,"ELEMENT_SET_NO":999,"REV_AT_EPOCH":21269,"BSTAR":-0.00018615000000000003,"MEAN_MOTION_DOT":-6e-07,"MEAN_MOTION_DDOT":0.0},{"OBJECT_NAME":"ONEWEB-0417","OBJECT_ID":"2021-132Z","EPOCH":"2026-04-10T10:06:09.826848","MEAN_MOTION":13.18688243,"ECCENTRICITY":0.0001501,"INCLINATION":87.9224,"RA_OF_ASC_NODE":348.9337,"ARG_OF_PERICENTER":80.3488,"MEAN_ANOMALY":279.7813,"EPHEMERIS_TYPE":0,"CLASSIFICATION_TYPE":"U","NORAD_CAT_ID":50492,"ELEMENT_SET_NO":999,"REV_AT_EPOCH":21267,"BSTAR":0.00023830000000000002,"MEAN_MOTION_DOT":1.07e-06,"MEAN_MOTION_DDOT":0.0},{"OBJECT_NAME":"ONEWEB-0418","OBJECT_ID":"2021-132AA","EPOCH":"2026-04-10T10:20:13.896096","MEAN_MOTION":13.18687279,"ECCENTRICITY":0.0001373,"INCLINATION":87.9231,"RA_OF_ASC_NODE":348.9249,"ARG_OF_PERICENTER":81.1135,"MEAN_ANOMALY":279.0152,"EPHEMERIS_TYPE":0,"CLASSIFICATION_TYPE":"U","NORAD_CAT_ID":50493,"ELEMENT_SET_NO":999,"REV_AT_EPOCH":21273,"BSTAR":-1.0211000000000001e-05,"MEAN_MOTION_DOT":9e-08,"MEAN_MOTION_DDOT":0.0},{"OBJECT_NAME":"ONEWEB-0419","OBJECT_ID":"2021-132AB","EPOCH":"2026-04-10T03:29:29.567040","MEAN_MOTION":13.18686868,"ECCENTRICITY":0.0001553,"INCLINATION":87.9233,"RA_OF_ASC_NODE":348.9813,"ARG_OF_PERICENTER":71.6692,"MEAN_ANOMALY":288.4609,"EPHEMERIS_TYPE":0,"CLASSIFICATION_TYPE":"U","NORAD_CAT_ID":50494,"ELEMENT_SET_NO":999,"REV_AT_EPOCH":21261,"BSTAR":0.00018329000000000002,"MEAN_MOTION_DOT":8.5e-07,"MEAN_MOTION_DDOT":0.0},{"OBJECT_NAME":"ONEWEB-0420","OBJECT_ID":"2021-132AC","EPOCH":"2026-04-10T09:56:40.320384","MEAN_MOTION":13.18687251,"ECCENTRICITY":0.0001975,"INCLINATION":87.9223,"RA_OF_ASC_NODE":348.9371,"ARG_OF_PERICENTER":79.1658,"MEAN_ANOMALY":280.9696,"EPHEMERIS_TYPE":0,"CLASSIFICATION_TYPE":"U","NORAD_CAT_ID":50495,"ELEMENT_SET_NO":999,"REV_AT_EPOCH":21264,"BSTAR":8.731200000000001e-05,"MEAN_MOTION_DOT":4.7e-07,"MEAN_MOTION_DDOT":0.0},{"OBJECT_NAME":"ONEWEB-0421","OBJECT_ID":"2021-132AD","EPOCH":"2026-04-10T09:47:10.540032","MEAN_MOTION":13.18684996,"ECCENTRICITY":0.00018,"INCLINATION":87.9231,"RA_OF_ASC_NODE":348.9327,"ARG_OF_PERICENTER":93.0319,"MEAN_ANOMALY":267.102,"EPHEMERIS_TYPE":0,"CLASSIFICATION_TYPE":"U","NORAD_CAT_ID":50496,"ELEMENT_SET_NO":999,"REV_AT_EPOCH":21268,"BSTAR":6.5304e-05,"MEAN_MOTION_DOT":3.9e-07,"MEAN_MOTION_DDOT":0.0},{"OBJECT_NAME":"ONEWEB-0424","OBJECT_ID":"2021-132AE","EPOCH":"2026-04-10T10:39:25.714368","MEAN_MOTION":13.18685665,"ECCENTRICITY":0.0001665,"INCLINATION":87.923,"RA_OF_ASC_NODE":348.9213,"ARG_OF_PERICENTER":69.3377,"MEAN_ANOMALY":290.7934,"EPHEMERIS_TYPE":0,"CLASSIFICATION_TYPE":"U","NORAD_CAT_ID":50497,"ELEMENT_SET_NO":999,"REV_AT_EPOCH":21271,"BSTAR":-6.1538e-05,"MEAN_MOTION_DOT":-1.1e-07,"MEAN_MOTION_DDOT":0.0},{"OBJECT_NAME":"ONEWEB-0426","OBJECT_ID":"2021-132AF","EPOCH":"2026-04-10T09:42:24.105024","MEAN_MOTION":13.18689628,"ECCENTRICITY":0.0001411,"INCLINATION":87.9233,"RA_OF_ASC_NODE":348.9212,"ARG_OF_PERICENTER":103.7605,"MEAN_ANOMALY":256.3684,"EPHEMERIS_TYPE":0,"CLASSIFICATION_TYPE":"U","NORAD_CAT_ID":50498,"ELEMENT_SET_NO":999,"REV_AT_EPOCH":21265,"BSTAR":0.00017553,"MEAN_MOTION_DOT":8.2e-07,"MEAN_MOTION_DDOT":0.0}]