ONEWEB-0403             
1 50483U 21132Q   26100.43579755  .00000055  00000+0  10638-3 0  9993
2 50483  87.9228 348.9231 0001610  80.7658 279.3656 13.18684287212663
ONEWEB-0404             
1 50484U 21132R   26100.35108932  .00000490  00000+0  13455-2 0  9992
2 50484  87.8907  34.5525 0001525  80.3472 279.7828 13.11414752206801
ONEWEB-0405             
1 50485U 21132S   26100.14713331 -.00000013  00000+0 -64993-4 0  9993
2 50485  87.9233 348.9644 0001782  63.3082 296.8232 13.18688349213025
ONEWEB-0406             
1 50486U 21132T   26100.44073488 -.00000052  00000+0 -16340-3 0  9994
2 50486  87.9220 348.9285 0001347  86.8090 273.3196 13.18688402212690
ONEWEB-0407             
1 50487U 21132U   26100.43413956 -.00000214  00000+0 -57545-3 0  9994
2 50487  87.9233 348.9164 0001907  80.1457 279.9890 13.18686575212633
ONEWEB-0409             
1 50488U 21132V   26100.50198994  .00000583  00000+0  16092-2 0  9993
2 50488  87.8917  34.5058 0001571  77.0143 283.1160 13.11415651206713
ONEWEB-0412             
1 50489U 21132W   26100.42259492  .00000051  00000+0  97037-4 0  9996
2 50489  87.9223 348.9306 0001956  88.1564 271.9792 13.18688188212728
ONEWEB-0413             
1 50490U 21132X   26100.42754668 -.00000066  00000+0 -20030-3 0  9999
2 50490  87.9217 348.9321 0002044  84.9838 275.1528 13.18684585212660
ONEWEB-0414             
1 50491U 21132Y   26100.41270222 -.00000060  00000+0 -18615-3 0  9998
2 50491  87.9228 348.9100 0001738  86.2339 273.8992 13.18684073212693
ONEWEB-0417             
1 50492U 21132Z   26100.42094707  .00000107  00000+0  23830-3 0  9997
2 50492  87.9224 348.9337 0001501  80.3488 279.7813 13.18688243212678
ONEWEB-0418             
1 50493U 21132AA  26100.43071639  .00000009  00000+0 -10211-4 0  9990
2 50493  87.9231 348.9249 0001373  81.1135 279.0152 13.18687279212738
ONEWEB-0419             
1 50494U 21132AB  26100.14548110  .00000085  00000+0  18329-3 0  9992
2 50494  87.9233 348.9813 0001553  71.6692 288.4609 13.18686868212611
ONEWEB-0420             
1 50495U 21132AC  26100.41435556  .00000047  00000+0  87312-4 0  9999
2 50495  87.9223 348.9371 0001975  79.1658 280.9696 13.18687251212646
ONEWEB-0421             
1 50496U 21132AD  26100.40776088  .00000039  00000+0  65304-4 0  9995
2 50496  87.9231 348.9327 0001800  93.0319 267.1020 13.18684996212688
ONEWEB-0424             
1 50497U 21132AE  26100.44404762 -.00000011  00000+0 -61538-4 0  9994
2 50497  87.9230 348.9213 0001665  69.3377 290.7934 13.18685665212715
ONEWEB-0426             
1 50498U 21132AF  26100.40444566  .00000082  00000+0  17553-3 0  9990
2 50498  87.9233 348.9212 0001411 103.7605 256.3684 13.18689628212650
